GLOBALSTAR M068         
1 32266U 07048D   24173.95914385 -.00000067  00000+0  20451-3 0  9997
2 32266  51.9903 320.3244 0001602  87.3789  62.8747 12.62792055772332
GLOBALSTAR M079         
1 37188U 10054A   24174.13113076 -.00000113  00000+0 -53785-4 0  9995
2 37188  52.0015 155.8531 0000133 274.9447 164.3505 12.62271155631662
GLOBALSTAR M074         
1 37189U 10054B   24174.24251593 -.00000126  00000+0 -12438-3 0  9998
2 37189  51.9990 154.8935 0000214  20.0143  84.7768 12.62269764631673
GLOBALSTAR M076         
1 37190U 10054C   24174.10400542 -.00000112  00000+0 -45022-4 0  9996
2 37190  52.0012 155.4521 0000457 310.7550 125.4364 12.62262272631661
GLOBALSTAR M077         
1 37191U 10054D   24173.31896047 -.00000116  00000+0 -66180-4 0  9990
2 37191  52.0065 114.5940 0000531  30.5230 136.2148 12.62273909631575
GLOBALSTAR M075         
1 37192U 10054E   24173.58525417 -.00000084  00000+0  10814-3 0  9995
2 37192  51.9922 199.4903 0000186 157.3601  20.3153 12.62261218630469
GLOBALSTAR M073         
1 37193U 10054F   24174.21114104 -.00000114  00000+0 -58913-4 0  9992
2 37193  52.0054 111.1291 0000439  24.7342 116.8939 12.62266301632428
GLOBALSTAR M083         
1 37739U 11033A   24174.14849955 -.00000097  00000+0  40252-4 0  9993
2 37739  51.9870  60.5411 0000776  82.3814  76.4052 12.62270498601747
GLOBALSTAR M088         
1 37740U 11033B   24173.62989369 -.00000101  00000+0  13020-4 0  9990
2 37740  51.9752 327.9167 0000901 117.7061 323.1941 12.62264434596861
GLOBALSTAR M091         
1 37741U 11033C   24173.82087814 -.00000081  00000+0  12839-3 0  9990
2 37741  52.0009 290.2480 0000957 135.5071  32.3320 12.62263990597675
GLOBALSTAR M085         
1 37742U 11033D   24173.64653462 -.00000066  00000+0  21104-3 0  9997
2 37742  51.9858 242.1345 0000641 152.5040   4.2033 12.62262803598163
GLOBALSTAR M081         
1 37743U 11033E   24173.67437959 -.00000065  00000+0  21824-3 0  9990
2 37743  51.9949 244.6154 0000619 172.5828 349.7364 12.62266198598313
GLOBALSTAR M089         
1 37744U 11033F   24174.08145939 -.00000076  00000+0  15397-3 0  9991
2 37744  51.9904 197.6731 0000246 299.6021  92.0696 12.62265312599465
GLOBALSTAR M084         
1 38040U 11080A   24174.20335098 -.00000090  00000+0  77464-4 0  9994
2 38040  52.0021  64.3947 0000811  44.5397 122.8411 12.62263617577488
GLOBALSTAR M080         
1 38041U 11080B   24174.17565647 -.00000093  00000+0  59571-4 0  9998
2 38041  52.0072  65.9584 0000692  24.6825 137.2715 12.62261925577466
GLOBALSTAR M082         
1 38042U 11080C   24174.02932646 -.00000090  00000+0  79055-4 0  9996
2 38042  52.0095  21.8143 0001370  97.2885  58.5284 12.62270493578186
GLOBALSTAR M092         
1 38043U 11080D   24174.14970639 -.00000110  00000+0 -35074-4 0  9991
2 38043  52.0083 111.8025 0000595  38.0075  66.0174 12.62262863576693
GLOBALSTAR M090         
1 38044U 11080E   24173.88590616 -.00000087  00000+0  92330-4 0  9995
2 38044  51.9903  16.5236 0001053  96.4104   7.3853 12.62264279578157
GLOBALSTAR M086         
1 38045U 11080F   24173.99372368 -.00000084  00000+0  10826-3 0  9996
2 38045  51.9917  16.7171 0000379 169.6217 305.2025 12.62263549578173
GLOBALSTAR M097         
1 39072U 13005A   24173.52037067 -.00000099  00000+0  26443-4 0  9998
2 39072  52.0058 292.3437 0000820 138.8368 221.2561 12.62263809525268
GLOBALSTAR M093         
1 39073U 13005B   24173.73130050 -.00000090  00000+0  76507-4 0  9995
2 39073  51.9816 285.5804 0000875 148.1455 211.9464 12.62273915525247
GLOBALSTAR M094         
1 39074U 13005C   24174.20627500 -.00000089  00000+0  84176-4 0  9999
2 39074  51.9932 198.1537 0000361 184.9188 175.1675 12.62267274526933
GLOBALSTAR M096         
1 39075U 13005D   24174.21942334 -.00000062  00000+0  23446-3 0  9999
2 39075  52.0066 246.3479 0000757 160.5957 199.4939 12.62267136526184
GLOBALSTAR M078         
1 39076U 13005E   24173.95570312 -.00000193  00000+0 -49609-3 0  9998
2 39076  51.9894 332.1510 0001740 102.4270 257.6791 12.62272652524638
GLOBALSTAR M095         
1 39077U 13005F   24173.98159719 -.00000095  00000+0  49187-4 0  9998
2 39077  51.9818 329.4441 0001415 121.2775 238.8230 12.62264122524648
GLOBALSTAR M087         
1 52888U 22064A   24174.18995699 -.00000107  00000+0  41422-4 0  9994
2 52888  51.9734 190.9373 0009435  18.7089 341.4157 13.37577021 98196
